start=new Date('2022-12-07T00:00:00.000Z').valueOf();
sats=[{"OBJECT_TYPE":"PAYLOAD","RCS_SIZE":"LARGE","DECAY_DATE":null,"TLE_LINE2":"2 51778  53.2161 265.6488 0002572  34.8148 325.3012 15.08827374 44741","TIME_SYSTEM":"UTC","COUNTRY_CODE":"US","INCLINATION":"53.2161","CENTER_NAME":"EARTH","SEMIMAJOR_AXIS":"6917.919","MEAN_ANOMALY":"325.3012","MEAN_MOTION_DOT":"-0.00001485","ELEMENT_SET_NO":"999","TLE_LINE1":"1 51778U 22017L   22340.93358815 -.00001485  00000-0 -75229-4 0  9992","BSTAR":"-0.00007522900000","FILE":"3683385","PERIOD":"95.438","SITE":"AFWTR","REV_AT_EPOCH":"4474","RA_OF_ASC_NODE":"265.6488","OBJECT_ID":"2022-017L","GP_ID":"219702202","LAUNCH_DATE":"2022-02-25","EPHEMERIS_TYPE":"0","PERIAPSIS":"538.005","NORAD_CAT_ID":"51778","REF_FRAME":"TEME","MEAN_MOTION_DDOT":"0.0000000000000","MEAN_ELEMENT_THEORY":"SGP4","MEAN_MOTION":"15.08827374","CLASSIFICATION_TYPE":"U","ARG_OF_PERICENTER":"34.8148","ECCENTRICITY":"0.00025720","EPOCH":"2022-12-06T22:24:22.016160","OBJECT_NAME":"STARLINK-3615","APOAPSIS":"541.563"},{"OBJECT_TYPE":"PAYLOAD","RCS_SIZE":"LARGE","DECAY_DATE":null,"TLE_LINE2":"2 51779  53.2181 278.7501 0003411  29.0369 331.0812 15.08848241 43005","TIME_SYSTEM":"UTC","COUNTRY_CODE":"US","INCLINATION":"53.2181","CENTER_NAME":"EARTH","SEMIMAJOR_AXIS":"6917.855","MEAN_ANOMALY":"331.0812","MEAN_MOTION_DOT":"0.00002753","BSTAR":"0.00019101000000","TLE_LINE1":"1 51779U 22017M   22340.24722138  .00002753  00000-0  19101-3 0  9993","ELEMENT_SET_NO":"999","FILE":"3683104","PERIOD":"95.437","SITE":"AFWTR","REV_AT_EPOCH":"4300","RA_OF_ASC_NODE":"278.7501","OBJECT_ID":"2022-017M","GP_ID":"219668424","LAUNCH_DATE":"2022-02-25","EPHEMERIS_TYPE":"0","PERIAPSIS":"537.361","NORAD_CAT_ID":"51779","MEAN_MOTION_DDOT":"0.0000000000000","REF_FRAME":"TEME","MEAN_ELEMENT_THEORY":"SGP4","CLASSIFICATION_TYPE":"U","ARG_OF_PERICENTER":"29.0369","MEAN_MOTION":"15.08848241","ECCENTRICITY":"0.00034110","EPOCH":"2022-12-06T05:55:59.927232","OBJECT_NAME":"STARLINK-3611","APOAPSIS":"542.080"},{"INCLINATION":"53.2171","CENTER_NAME":"EARTH","COUNTRY_CODE":"US","RCS_SIZE":"LARGE","DECAY_DATE":null,"TLE_LINE2":"2 51780  53.2171 277.3056 0002100  34.9747 325.1383 15.08839725 42907","TIME_SYSTEM":"UTC","OBJECT_TYPE":"PAYLOAD","SITE":"AFWTR","REV_AT_EPOCH":"4290","RA_OF_ASC_NODE":"277.3056","TLE_LINE1":"1 51780U 22017N   22340.56834201 -.00000233  00000-0  34431-5 0  9992","ELEMENT_SET_NO":"999","BSTAR":"0.00000344310000","FILE":"3683104","PERIOD":"95.438","MEAN_MOTION_DOT":"-0.00000233","SEMIMAJOR_AXIS":"6917.881","MEAN_ANOMALY":"325.1383","REF_FRAME":"TEME","MEAN_MOTION_DDOT":"0.0000000000000","MEAN_ELEMENT_THEORY":"SGP4","NORAD_CAT_ID":"51780","LAUNCH_DATE":"2022-02-25","EPHEMERIS_TYPE":"0","PERIAPSIS":"538.293","GP_ID":"219666703","OBJECT_ID":"2022-017N","APOAPSIS":"541.199","OBJECT_NAME":"STARLINK-3617","CLASSIFICATION_TYPE":"U","ARG_OF_PERICENTER":"34.9747","MEAN_MOTION":"15.08839725","ECCENTRICITY":"0.00021000","EPOCH":"2022-12-06T13:38:24.749664"},{"TLE_LINE1":"1 51781U 22017P   22340.83970947 -.00001315  00000-0 -64495-4 0  9996","ELEMENT_SET_NO":"999","BSTAR":"-0.00006449500000","PERIOD":"95.438","FILE":"3683385","REV_AT_EPOCH":"4459","SITE":"AFWTR","RA_OF_ASC_NODE":"276.0840","SEMIMAJOR_AXIS":"6917.902","MEAN_ANOMALY":"324.9673","MEAN_MOTION_DOT":"-0.00001315","COUNTRY_CODE":"US","INCLINATION":"53.2160","CENTER_NAME":"EARTH","OBJECT_TYPE":"PAYLOAD","DECAY_DATE":null,"RCS_SIZE":"LARGE","TIME_SYSTEM":"UTC","TLE_LINE2":"2 51781  53.2160 276.0840 0002988  35.1515 324.9673 15.08832896 44591","APOAPSIS":"541.834","ECCENTRICITY":"0.00029880","CLASSIFICATION_TYPE":"U","ARG_OF_PERICENTER":"35.1515","MEAN_MOTION":"15.08832896","EPOCH":"2022-12-06T20:09:10.898208","OBJECT_NAME":"STARLINK-3580","NORAD_CAT_ID":"51781","MEAN_ELEMENT_THEORY":"SGP4","REF_FRAME":"TEME","MEAN_MOTION_DDOT":"0.0000000000000","GP_ID":"219702204","OBJECT_ID":"2022-017P","LAUNCH_DATE":"2022-02-25","PERIAPSIS":"537.700","EPHEMERIS_TYPE":"0"},{"APOAPSIS":"541.720","OBJECT_NAME":"STARLINK-3616","EPOCH":"2022-12-06T20:34:20.946432","CLASSIFICATION_TYPE":"U","ARG_OF_PERICENTER":"34.1017","MEAN_MOTION":"15.08836621","ECCENTRICITY":"0.00028390","MEAN_MOTION_DDOT":"0.0000000000000","REF_FRAME":"TEME","MEAN_ELEMENT_THEORY":"SGP4","NORAD_CAT_ID":"51782","EPHEMERIS_TYPE":"0","PERIAPSIS":"537.792","LAUNCH_DATE":"2022-02-25","GP_ID":"219702293","OBJECT_ID":"2022-017Q","RA_OF_ASC_NODE":"285.9851","SITE":"AFWTR","REV_AT_EPOCH":"4444","FILE":"3683386","PERIOD":"95.438","TLE_LINE1":"1 51782U 22017Q   22340.85718688 -.00002317  00000-0 -12747-3 0  9996","BSTAR":"-0.00012747000000","ELEMENT_SET_NO":"999","MEAN_MOTION_DOT":"-0.00002317","MEAN_ANOMALY":"326.0157","SEMIMAJOR_AXIS":"6917.891","CENTER_NAME":"EARTH","INCLINATION":"53.2177","COUNTRY_CODE":"US","TLE_LINE2":"2 51782  53.2177 285.9851 0002839  34.1017 326.0157 15.08836621 44446","TIME_SYSTEM":"UTC","RCS_SIZE":"LARGE","DECAY_DATE":null,"OBJECT_TYPE":"PAYLOAD"},{"TIME_SYSTEM":"UTC","TLE_LINE2":"2 51783  53.2167 277.2887 0003169  33.5086 326.6106 15.08840350 42908","DECAY_DATE":null,"RCS_SIZE":"LARGE","OBJECT_TYPE":"PAYLOAD","CENTER_NAME":"EARTH","INCLINATION":"53.2167","COUNTRY_CODE":"US","MEAN_MOTION_DOT":"0.00000241","MEAN_ANOMALY":"326.6106","SEMIMAJOR_AXIS":"6917.879","RA_OF_ASC_NODE":"277.2887","REV_AT_EPOCH":"4290","SITE":"AFWTR","PERIOD":"95.438","FILE":"3683274","ELEMENT_SET_NO":"999","TLE_LINE1":"1 51783U 22017R   22340.57106460  .00000241  00000-0  33272-4 0  9994","BSTAR":"0.00003327200000","PERIAPSIS":"537.552","EPHEMERIS_TYPE":"0","LAUNCH_DATE":"2022-02-25","OBJECT_ID":"2022-017R","GP_ID":"219696422","MEAN_ELEMENT_THEORY":"SGP4","REF_FRAME":"TEME","MEAN_MOTION_DDOT":"0.0000000000000","NORAD_CAT_ID":"51783","OBJECT_NAME":"STARLINK-3628","EPOCH":"2022-12-06T13:42:19.981440","ECCENTRICITY":"0.00031690","ARG_OF_PERICENTER":"33.5086","CLASSIFICATION_TYPE":"U","MEAN_MOTION":"15.08840350","APOAPSIS":"541.937"},{"MEAN_ELEMENT_THEORY":"SGP4","REF_FRAME":"TEME","MEAN_MOTION_DDOT":"0.0000000000000","NORAD_CAT_ID":"51784","PERIAPSIS":"538.040","EPHEMERIS_TYPE":"0","LAUNCH_DATE":"2022-02-25","OBJECT_ID":"2022-017S","GP_ID":"219667188","APOAPSIS":"541.413","OBJECT_NAME":"STARLINK-3632","EPOCH":"2022-12-06T09:21:20.509344","ECCENTRICITY":"0.00024380","CLASSIFICATION_TYPE":"U","ARG_OF_PERICENTER":"34.1848","MEAN_MOTION":"15.08846086","CENTER_NAME":"EARTH","INCLINATION":"53.2174","COUNTRY_CODE":"US","TIME_SYSTEM":"UTC","TLE_LINE2":"2 51784  53.2174 288.0957 0002438  34.1848 325.9300 15.08846086 42737","RCS_SIZE":"LARGE","DECAY_DATE":null,"OBJECT_TYPE":"PAYLOAD","RA_OF_ASC_NODE":"288.0957","REV_AT_EPOCH":"4273","SITE":"AFWTR","PERIOD":"95.437","FILE":"3683104","TLE_LINE1":"1 51784U 22017S   22340.38982071  .00000660  00000-0  59584-4 0  9993","BSTAR":"0.00005958400000","ELEMENT_SET_NO":"999","MEAN_MOTION_DOT":"0.00000660","MEAN_ANOMALY":"325.9300","SEMIMAJOR_AXIS":"6917.862"},{"PERIOD":"95.437","FILE":"3683104","ELEMENT_SET_NO":"999","TLE_LINE1":"1 51785U 22017T   22340.56738240  .00000173  00000-0  28988-4 0  9994","BSTAR":"0.00002898800000","RA_OF_ASC_NODE":"277.3134","REV_AT_EPOCH":"4290","SITE":"AFWTR","MEAN_ANOMALY":"325.9844","SEMIMAJOR_AXIS":"6917.876","MEAN_MOTION_DOT":"0.00000173","COUNTRY_CODE":"US","CENTER_NAME":"EARTH","INCLINATION":"53.2171","OBJECT_TYPE":"PAYLOAD","TIME_SYSTEM":"UTC","TLE_LINE2":"2 51785  53.2171 277.3134 0002774  34.1326 325.9844 15.08841532 42900","RCS_SIZE":"LARGE","DECAY_DATE":null,"APOAPSIS":"541.660","EPOCH":"2022-12-06T13:37:01.839360","ECCENTRICITY":"0.00027740","CLASSIFICATION_TYPE":"U","MEAN_MOTION":"15.08841532","ARG_OF_PERICENTER":"34.1326","OBJECT_NAME":"STARLINK-3646","NORAD_CAT_ID":"51785","MEAN_ELEMENT_THEORY":"SGP4","REF_FRAME":"TEME","MEAN_MOTION_DDOT":"0.0000000000000","OBJECT_ID":"2022-017T","GP_ID":"219667437","PERIAPSIS":"537.822","EPHEMERIS_TYPE":"0","LAUNCH_DATE":"2022-02-25"},{"REV_AT_EPOCH":"4449","SITE":"AFWTR","RA_OF_ASC_NODE":"286.0447","TLE_LINE1":"1 51786U 22017U   22340.84615272 -.00000910  00000-0 -39050-4 0  9998","ELEMENT_SET_NO":"999","BSTAR":"-0.00003905000000","PERIOD":"95.438","FILE":"3683386","MEAN_MOTION_DOT":"-0.00000910","SEMIMAJOR_AXIS":"6917.891","MEAN_ANOMALY":"320.6345","INCLINATION":"53.2173","CENTER_NAME":"EARTH","COUNTRY_CODE":"US","DECAY_DATE":null,"RCS_SIZE":"LARGE","TIME_SYSTEM":"UTC","TLE_LINE2":"2 51786  53.2173 286.0447 0002905  39.4858 320.6345 15.08836539 44496","OBJECT_TYPE":"PAYLOAD","APOAPSIS":"541.766","OBJECT_NAME":"STARLINK-3638","ECCENTRICITY":"0.00029050","CLASSIFICATION_TYPE":"U","ARG_OF_PERICENTER":"39.4858","MEAN_MOTION":"15.08836539","EPOCH":"2022-12-06T20:18:27.595008","MEAN_ELEMENT_THEORY":"SGP4","MEAN_MOTION_DDOT":"0.0000000000000","REF_FRAME":"TEME","NORAD_CAT_ID":"51786","LAUNCH_DATE":"2022-02-25","PERIAPSIS":"537.746","EPHEMERIS_TYPE":"0","GP_ID":"219702214","OBJECT_ID":"2022-017U"},{"SITE":"AFWTR","REV_AT_EPOCH":"4444","RA_OF_ASC_NODE":"285.9824","TLE_LINE1":"1 51787U 22017V   22340.86086223  .00000319  00000-0  38142-4 0  9991","BSTAR":"0.00003814200000","ELEMENT_SET_NO":"999","FILE":"3683386","PERIOD":"95.437","MEAN_MOTION_DOT":"0.00000319","SEMIMAJOR_AXIS":"6917.874","MEAN_ANOMALY":"318.7751","INCLINATION":"53.2182","CENTER_NAME":"EARTH","COUNTRY_CODE":"US","DECAY_DATE":null,"RCS_SIZE":"LARGE","TLE_LINE2":"2 51787  53.2182 285.9824 0002934  41.3463 318.7751 15.08842220 44448","TIME_SYSTEM":"UTC","OBJECT_TYPE":"PAYLOAD","APOAPSIS":"541.768","OBJECT_NAME":"STARLINK-3619","CLASSIFICATION_TYPE":"U","ARG_OF_PERICENTER":"41.3463","MEAN_MOTION":"15.08842220","ECCENTRICITY":"0.00029340","EPOCH":"2022-12-06T20:39:38.496672","MEAN_MOTION_DDOT":"0.0000000000000","REF_FRAME":"TEME","MEAN_ELEMENT_THEORY":"SGP4","NORAD_CAT_ID":"51787","LAUNCH_DATE":"2022-02-25","EPHEMERIS_TYPE":"0","PERIAPSIS":"537.709","OBJECT_ID":"2022-017V","GP_ID":"219702297"}];
